OBJECT_NAME,OBJECT_ID,EPOCH,MEAN_MOTION,ECCENTRICITY,INCLINATION,RA_OF_ASC_NODE,ARG_OF_PERICENTER,MEAN_ANOMALY,EPHEMERIS_TYPE,CLASSIFICATION_TYPE,NORAD_CAT_ID,ELEMENT_SET_NO,REV_AT_EPOCH,BSTAR,MEAN_MOTION_DOT,MEAN_MOTION_DDOT
OSCAR 7 (AO-7),1974-089B,2026-07-20T21:34:01.733952,12.53698628,.0012627,101.9907,215.4967,67.8285,359.0516,0,U,7530,999,36474,-.1896E-4,-.49E-6,0
PHASE 3B (AO-10),1983-058B,2026-07-20T09:17:14.138016,2.05870004,.59997653,25.9413,214.0974,124.7892,306.9505,0,U,14129,999,29617,0,-.23E-6,0
UOSAT 2 (UO-11),1984-021B,2026-07-20T20:20:41.343072,14.90857629,.0009172,97.8081,167.0524,75.7217,284.5019,0,U,14781,999,26214,.99049E-4,.92E-5,0
LUSAT (LO-19),1990-005G,2026-07-20T19:26:56.456160,14.34131740,.0012656,98.8846,224.5413,106.3083,253.9494,0,U,20442,999,90721,.32793E-4,.45E-6,0
EYESAT A (AO-27),1993-061C,2026-07-20T18:33:05.434848,14.30950010,.0008427,98.6863,269.1713,10.0473,350.0876,0,U,22825,999,71180,.27786E-4,.28E-6,0
ITAMSAT (IO-26),1993-061D,2026-07-20T17:49:00.412032,14.31377685,.000862,98.6811,269.0617,352.8903,7.2156,0,U,22826,999,71211,.24924E-4,.21E-6,0
RADIO ROSTO (RS15),1994-085A,2026-07-20T19:37:40.778112,11.27583651,.0157137,64.8143,248.8272,357.6705,2.3471,0,U,23439,999,29969,-.13223E-3,-.47E-6,0
JAS-2 (FO-29),1996-046B,2026-07-20T10:23:27.209184,13.53275815,.0350108,98.5217,45.7476,10.3648,350.4474,0,U,24278,999,47766,-.13728913E-4,-.49E-6,0
TECHSAT 1B (GO-32),1998-043D,2026-07-20T10:18:49.794336,14.24433990,.00023079,99.0089,195.0299,106.7809,253.3622,0,U,25397,999,45606,.27496537E-4,.17E-6,0
ISS (ZARYA),1998-067A,2026-07-20T19:09:47.003616,15.49066413,.0006836,51.6312,133.7599,319.3995,40.6483,0,U,25544,999,57696,.109E-3,.5574E-4,0
PCSAT (NO-44),2001-043C,2026-07-20T08:03:28.656576,14.31966213,.0005868,67.0500,158.5337,267.0045,93.0386,0,U,26931,999,29519,.47439985E-4,.44E-6,0
SAUDISAT 1C (SO-50),2002-058C,2026-07-19T22:14:27.684384,14.83103564,.00743805,64.5521,27.6843,256.4147,102.8667,0,U,27607,999,26931,.6450776E-4,.394E-5,0
CUTE-1 (CO-55),2003-031E,2026-07-20T11:23:59.936064,14.24353565,.00108681,98.6745,209.6162,89.1638,271.0786,0,U,27844,999,19641,.81840072E-4,.146E-5,0
CUBESAT XI-IV (CO-57),2003-031J,2026-07-20T11:31:28.745184,14.23636281,.00106849,98.6776,209.3071,105.6000,254.6359,0,U,27848,999,19611,.7011484E-4,.116E-5,0
MOZHAETS 4 (RS22),2003-042A,2026-07-20T15:03:00.036864,14.73518554,.00116746,98.3482,26.9326,156.3800,291.3422,0,U,27939,999,22047,.45965427E-4,.245E-5,0
CUBESAT XI-V,2005-043F,2026-07-20T08:32:07.043712,14.72709962,.00153624,98.3023,357.6819,100.1286,260.1655,0,U,28895,999,10663,.11885758E-3,.706E-5,0
CUTE-1.7+APD II (CO-65),2008-021C,2026-07-20T20:30:48.610656,15.09729888,.000686,97.8299,183.9850,275.6715,84.3731,0,U,32785,999,99027,.18257E-3,.2878E-4,0
SEEDS II (CO-66),2008-021J,2026-07-20T10:02:30.230016,15.33774165,.00036582,97.7536,200.9319,145.6497,214.4982,0,U,32791,999,99238,.33333244E-3,.10808E-3,0
YUBILEINY (RS30),2008-025A,2026-07-20T19:39:02.592000,12.43180997,.0018769,82.5072,334.5192,236.0062,123.9235,0,U,32953,999,82387,.49213E-3,.78E-6,0
KKS-1 (KISEKI),2009-002H,2026-07-20T18:52:25.448160,14.83196982,.0007876,98.1170,124.7608,170.6960,189.4400,0,U,33499,999,94117,.87013E-4,.655E-5,0
SWISSCUBE,2009-051B,2026-07-20T13:20:10.559328,14.62536612,.0008041,98.4001,110.0215,104.8066,255.4026,0,U,35932,999,89403,.10867E-3,.502E-5,0
BEESAT-1,2009-051C,2026-07-20T17:16:03.338976,14.61766931,.0006395,98.3928,109.7530,115.5252,244.6610,0,U,35933,999,89408,.91451E-4,.407E-5,0
ITUPSAT1,2009-051E,2026-07-20T12:49:19.276896,14.60483294,.0008387,98.4013,108.7212,128.2729,231.9226,0,U,35935,999,89360,.87689E-4,.377E-5,0
XIWANG-1 (HOPE-1),2009-072B,2026-07-20T20:03:06.214176,13.16441857,.0007712,100.4044,155.1330,152.1280,208.0247,0,U,36122,999,79743,.11898E-2,.41E-5,0
O/OREOS (USA 219),2010-062C,2026-07-20T19:31:17.649408,14.93864927,.0014373,71.9703,4.1595,354.2634,5.8369,0,U,37224,999,12166,.12413E-3,.1258E-4,0
JUGNU,2011-058B,2026-07-20T10:00:31.103424,14.13784435,.00186392,19.9604,106.5369,83.7644,74.4048,0,U,37839,999,76373,.49013982E-4,.361E-5,0
SRMSAT,2011-058D,2026-07-20T08:49:17.450976,14.11581727,.00116043,19.9702,218.6370,208.2906,179.8338,0,U,37841,999,76251,.35427981E-4,.33E-5,0
STRAND-1,2013-009E,2026-07-20T11:22:55.596576,14.37180722,.00096444,98.3940,20.8921,126.9146,233.2926,0,U,39090,999,70184,.59206383E-4,.134E-5,0
ZACUBE-1 (TSHEPISOSAT),2013-066B,2026-07-20T20:47:42.552672,15.01347026,.0044079,97.7999,164.3670,137.0238,223.4443,0,U,39417,999,68578,.14537E-3,.1847E-4,0
GOMX-1,2013-066Q,2026-07-20T19:44:30.512832,14.69549807,.0127775,97.6466,40.1627,330.0920,29.3028,0,U,39430,999,67485,.97868E-4,.605E-5,0
